{
  "type": "FeatureCollection",
  "features": [
    {
      "type": "Feature",
      "properties": {
        "norad_id": 41330,
        "name": "COSMOS 2514 (751)",
        "group": "gnss",
        "lat": -19.333220406749923,
        "lon": 148.81702344202807,
        "alt_km": 19103.347464588333,
        "timestamp": "2025-12-10T21:43:22.330993+00:00",
        "meta_object_name": "COSMOS 2514 (751)",
        "meta_object_id": "2016-008A",
        "meta_epoch": "2025-12-10T04:09:27.217152",
        "meta_mean_motion": 2.13102572,
        "meta_eccentricity": 0.0012197,
        "meta_inclination": 65.1353,
        "meta_ra_of_asc_node": 319.4918,
        "meta_arg_of_pericenter": 220.0504,
        "meta_mean_anomaly": 139.8574,
        "meta_ephemeris_type": 0,
        "meta_classification_type": "U",
        "meta_norad_cat_id": 41330,
        "meta_element_set_no": 999,
        "meta_rev_at_epoch": 7659,
        "meta_bstar": 0,
        "meta_mean_motion_dot": -5e-07,
        "meta_mean_motion_ddot": 0,
        "tle_line1": "1 41330U 16008A   25344.17323168 -.00000050  00000+0  00000+0 0  9999",
        "tle_line2": "2 41330  65.1353 319.4918 0012197 220.0504 139.8574  2.13102572 76591"
      },
      "geometry": {
        "type": "Point",
        "coordinates": [
          148.81702344202807,
          -19.333220406749923
        ]
      }
    },
    {
      "type": "Feature",
      "properties": {
        "norad_id": 41384,
        "name": "IRNSS-1F",
        "group": "gnss",
        "lat": -1.8957442760341279,
        "lon": 78.25428113736108,
        "alt_km": 35873.74500944237,
        "timestamp": "2025-12-10T21:43:22.331005+00:00",
        "meta_object_name": "IRNSS-1F",
        "meta_object_id": "2016-015A",
        "meta_epoch": "2025-12-10T01:42:33.702624",
        "meta_mean_motion": 1.00271105,
        "meta_eccentricity": 0.00225084,
        "meta_inclination": 4.8738,
        "meta_ra_of_asc_node": 101.3662,
        "meta_arg_of_pericenter": 180.3375,
        "meta_mean_anomaly": 215.349,
        "meta_ephemeris_type": 0,
        "meta_classification_type": "U",
        "meta_norad_cat_id": 41384,
        "meta_element_set_no": 999,
        "meta_rev_at_epoch": 3577,
        "meta_bstar": 0,
        "meta_mean_motion_dot": 1.61e-06,
        "meta_mean_motion_ddot": 0,
        "tle_line1": "1 41384U 16015A   25344.07122341  .00000161  00000+0  00000+0 0  9997",
        "tle_line2": "2 41384   4.8738 101.3662 0022508 180.3375 215.3490  1.00271105 35778"
      },
      "geometry": {
        "type": "Point",
        "coordinates": [
          78.25428113736108,
          -1.8957442760341279
        ]
      }
    },
    {
      "type": "Feature",
      "properties": {
        "norad_id": 41434,
        "name": "BEIDOU-2 IGSO-6 (C13)",
        "group": "gnss",
        "lat": 59.00553118717922,
        "lon": 145.79581604729103,
        "alt_km": 35937.47176105055,
        "timestamp": "2025-12-10T21:43:22.331029+00:00",
        "meta_object_name": "BEIDOU-2 IGSO-6 (C13)",
        "meta_object_id": "2016-021A",
        "meta_epoch": "2025-12-03T15:53:57.382080",
        "meta_mean_motion": 1.00293531,
        "meta_eccentricity": 0.00596341,
        "meta_inclination": 59.9536,
        "meta_ra_of_asc_node": 39.991,
        "meta_arg_of_pericenter": 228.541,
        "meta_mean_anomaly": 135.1173,
        "meta_ephemeris_type": 0,
        "meta_classification_type": "U",
        "meta_norad_cat_id": 41434,
        "meta_element_set_no": 999,
        "meta_rev_at_epoch": 3552,
        "meta_bstar": 0,
        "meta_mean_motion_dot": -1.61e-06,
        "meta_mean_motion_ddot": 0,
        "tle_line1": "1 41434U 16021A   25337.66246970 -.00000161  00000+0  00000+0 0  9993",
        "tle_line2": "2 41434  59.9536  39.9910 0059634 228.5410 135.1173  1.00293531 35525"
      },
      "geometry": {
        "type": "Point",
        "coordinates": [
          145.79581604729103,
          59.00553118717922
        ]
      }
    },
    {
      "type": "Feature",
      "properties": {
        "norad_id": 41469,
        "name": "IRNSS-1G",
        "group": "gnss",
        "lat": 4.513668620164097,
        "lon": 174.84435353773588,
        "alt_km": 35793.9834960833,
        "timestamp": "2025-12-10T21:43:22.331044+00:00",
        "meta_object_name": "IRNSS-1G",
        "meta_object_id": "2016-027A",
        "meta_epoch": "2025-12-09T19:19:22.858752",
        "meta_mean_motion": 1.00250781,
        "meta_eccentricity": 0.00046331,
        "meta_inclination": 4.7258,
        "meta_ra_of_asc_node": 102.1755,
        "meta_arg_of_pericenter": 335.5211,
        "meta_mean_anomaly": 60.1492,
        "meta_ephemeris_type": 0,
        "meta_classification_type": "U",
        "meta_norad_cat_id": 41469,
        "meta_element_set_no": 999,
        "meta_rev_at_epoch": 3528,
        "meta_bstar": 0,
        "meta_mean_motion_dot": -3.35e-06,
        "meta_mean_motion_ddot": 0,
        "tle_line1": "1 41469U 16027A   25343.80512568 -.00000335  00000+0  00000+0 0  9992",
        "tle_line2": "2 41469   4.7258 102.1755 0004633 335.5211  60.1492  1.00250781 35283"
      },
      "geometry": {
        "type": "Point",
        "coordinates": [
          174.84435353773588,
          4.513668620164097
        ]
      }
    },
    {
      "type": "Feature",
      "properties": {
        "norad_id": 41549,
        "name": "GSAT0211 (GALILEO 14)",
        "group": "gnss",
        "lat": -48.96049413432846,
        "lon": 99.97691535600651,
        "alt_km": 23235.0752122069,
        "timestamp": "2025-12-10T21:43:22.331056+00:00",
        "meta_object_name": "GSAT0211 (GALILEO 14)",
        "meta_object_id": "2016-030A",
        "meta_epoch": "2025-12-07T13:40:58.264320",
        "meta_mean_motion": 1.70472997,
        "meta_eccentricity": 0.00040128,
        "meta_inclination": 55.154,
        "meta_ra_of_asc_node": 226.9659,
        "meta_arg_of_pericenter": 14.4678,
        "meta_mean_anomaly": 345.6377,
        "meta_ephemeris_type": 0,
        "meta_classification_type": "U",
        "meta_norad_cat_id": 41549,
        "meta_element_set_no": 999,
        "meta_rev_at_epoch": 5940,
        "meta_bstar": 0,
        "meta_mean_motion_dot": 2.3e-07,
        "meta_mean_motion_ddot": 0,
        "tle_line1": "1 41549U 16030A   25341.57011880  .00000023  00000+0  00000+0 0  9991",
        "tle_line2": "2 41549  55.1540 226.9659 0004012  14.4678 345.6377  1.70472997 59400"
      },
      "geometry": {
        "type": "Point",
        "coordinates": [
          99.97691535600651,
          -48.96049413432846
        ]
      }
    },
    {
      "type": "Feature",
      "properties": {
        "norad_id": 41550,
        "name": "GSAT0210 (GALILEO 13)",
        "group": "gnss",
        "lat": 55.14053891406391,
        "lon": -45.208202461206824,
        "alt_km": 23219.543786094062,
        "timestamp": "2025-12-10T21:43:22.331070+00:00",
        "meta_object_name": "GSAT0210 (GALILEO 13)",
        "meta_object_id": "2016-030B",
        "meta_epoch": "2025-12-09T00:00:58.854816",
        "meta_mean_motion": 1.70473614,
        "meta_eccentricity": 0.0001366,
        "meta_inclination": 55.1527,
        "meta_ra_of_asc_node": 226.9246,
        "meta_arg_of_pericenter": 244.5421,
        "meta_mean_anomaly": 115.531,
        "meta_ephemeris_type": 0,
        "meta_classification_type": "U",
        "meta_norad_cat_id": 41550,
        "meta_element_set_no": 999,
        "meta_rev_at_epoch": 5942,
        "meta_bstar": 0,
        "meta_mean_motion_dot": 1.3e-07,
        "meta_mean_motion_ddot": 0,
        "tle_line1": "1 41550U 16030B   25343.00068119  .00000013  00000+0  00000+0 0  9999",
        "tle_line2": "2 41550  55.1527 226.9246 0001366 244.5421 115.5310  1.70473614 59420"
      },
      "geometry": {
        "type": "Point",
        "coordinates": [
          -45.208202461206824,
          55.14053891406391
        ]
      }
    },
    {
      "type": "Feature",
      "properties": {
        "norad_id": 41586,
        "name": "BEIDOU-2 G7 (C03)",
        "group": "gnss",
        "lat": 1.754363679797094,
        "lon": 156.21168202228864,
        "alt_km": 35786.06535660575,
        "timestamp": "2025-12-10T21:43:22.331084+00:00",
        "meta_object_name": "BEIDOU-2 G7 (C03)",
        "meta_object_id": "2016-037A",
        "meta_epoch": "2025-12-10T02:04:58.987776",
        "meta_mean_motion": 1.00268277,
        "meta_eccentricity": 0.00043575,
        "meta_inclination": 1.7507,
        "meta_ra_of_asc_node": 67.7099,
        "meta_arg_of_pericenter": 1.1647,
        "meta_mean_anomaly": 151.896,
        "meta_ephemeris_type": 0,
        "meta_classification_type": "U",
        "meta_norad_cat_id": 41586,
        "meta_element_set_no": 999,
        "meta_rev_at_epoch": 499,
        "meta_bstar": 0,
        "meta_mean_motion_dot": -3.5e-06,
        "meta_mean_motion_ddot": 0,
        "tle_line1": "1 41586U 16037A   25344.08679384 -.00000350  00000+0  00000+0 0  9991",
        "tle_line2": "2 41586   1.7507  67.7099 0004357   1.1647 151.8960  1.00268277  4997"
      },
      "geometry": {
        "type": "Point",
        "coordinates": [
          156.21168202228864,
          1.754363679797094
        ]
      }
    }
  ]
}